[{"OBJECT_NAME":"STARLINK-1153","OBJECT_ID":"2020-006AN","EPOCH":"2026-03-09T19:24:11.934144","MEAN_MOTION":15.29349548,"ECCENTRICITY":8.191e-5,"INCLINATION":53.1601,"RA_OF_ASC_NODE":257.2166,"ARG_OF_PERICENTER":65.4906,"MEAN_ANOMALY":294.6179,"EPHEMERIS_TYPE":0,"CLASSIFICATION_TYPE":"U","NORAD_CAT_ID":45080,"ELEMENT_SET_NO":999,"REV_AT_EPOCH":33689,"BSTAR":-0.00015625305,"MEAN_MOTION_DOT":-4.86e-5,"MEAN_MOTION_DDOT":0},{"OBJECT_NAME":"ICEYE-X7","OBJECT_ID":"2020-068L","EPOCH":"2026-03-09T22:52:28.702272","MEAN_MOTION":15.29152508,"ECCENTRICITY":0.00068409,"INCLINATION":97.7412,"RA_OF_ASC_NODE":31.2076,"ARG_OF_PERICENTER":332.3045,"MEAN_ANOMALY":27.7829,"EPHEMERIS_TYPE":0,"CLASSIFICATION_TYPE":"U","NORAD_CAT_ID":46496,"ELEMENT_SET_NO":999,"REV_AT_EPOCH":29961,"BSTAR":0.0005654802,"MEAN_MOTION_DOT":0.00015947,"MEAN_MOTION_DDOT":0}]
